{
  "norad_id": 56880,
  "name": "STARLINK-6177",
  "history": [
    {
      "epoch": "2026-03-28T22:00:01.999584Z",
      "apogee_km": 500.762426783037,
      "perigee_km": 499.30150369482,
      "latitude_deg": 29.961065641881405,
      "longitude_deg": -38.211163053380275,
      "height_km": 501.32496725900893,
      "semi_major_axis_km": 6878.168965238928,
      "eccentricity": 0.0001062,
      "inclination_deg": 43.0011,
      "raan_deg": 336.0597,
      "arg_perigee_deg": 304.1117,
      "mean_anomaly_deg": 189.023,
      "mean_motion_rev_day": 15.21925878
    },
    {
      "epoch": "2026-03-29T04:00:01.999584Z",
      "apogee_km": 500.32154877482935,
      "perigee_km": 498.21018609452676,
      "latitude_deg": 38.04237340443392,
      "longitude_deg": 144.63706569468096,
      "height_km": 502.13864911584454,
      "semi_major_axis_km": 6877.402867434678,
      "eccentricity": 0.0001535,
      "inclination_deg": 43.0003,
      "raan_deg": 334.6614,
      "arg_perigee_deg": 284.1125,
      "mean_anomaly_deg": 140.1249,
      "mean_motion_rev_day": 15.22180184
    },
    {
      "epoch": "2026-03-30T04:00:01.999584Z",
      "apogee_km": 497.96952962674277,
      "perigee_km": 496.30433827993875,
      "latitude_deg": 19.17841939810127,
      "longitude_deg": -120.28131039936845,
      "height_km": 496.7272045131159,
      "semi_major_axis_km": 6875.27393395334,
      "eccentricity": 0.0001211,
      "inclination_deg": 43.001,
      "raan_deg": 329.0614,
      "arg_perigee_deg": 262.9133,
      "mean_anomaly_deg": 248.3953,
      "mean_motion_rev_day": 15.22887255
    },
    {
      "epoch": "2026-03-30T06:00:02.000160Z",
      "apogee_km": 497.98490258899074,
      "perigee_km": 495.6533299717157,
      "latitude_deg": -39.62612730187205,
      "longitude_deg": -67.04530562289182,
      "height_km": 507.54831420646855,
      "semi_major_axis_km": 6874.956116280353,
      "eccentricity": 0.00016957,
      "inclination_deg": 43.0005,
      "raan_deg": 328.5939,
      "arg_perigee_deg": 248.189,
      "mean_anomaly_deg": 0.5334,
      "mean_motion_rev_day": 15.22992857
    },
    {
      "epoch": "2026-03-30T14:00:03.000384Z",
      "apogee_km": 496.8458081286781,
      "perigee_km": 494.56699156476043,
      "latitude_deg": -42.53423769838701,
      "longitude_deg": -149.33317196021991,
      "height_km": 507.78284148135475,
      "semi_major_axis_km": 6873.843399846719,
      "eccentricity": 0.00016576,
      "inclination_deg": 43.0003,
      "raan_deg": 326.7211,
      "arg_perigee_deg": 252.1129,
      "mean_anomaly_deg": 26.6801,
      "mean_motion_rev_day": 15.23362678
    },
    {
      "epoch": "2026-03-30T22:00:00.999936Z",
      "apogee_km": 495.6688267394684,
      "perigee_km": 493.4182987623899,
      "latitude_deg": -32.12358137715755,
      "longitude_deg": 124.51185735368041,
      "height_km": 502.58674051729565,
      "semi_major_axis_km": 6872.680562750929,
      "eccentricity": 0.00016373,
      "inclination_deg": 43.0006,
      "raan_deg": 324.8527,
      "arg_perigee_deg": 264.9918,
      "mean_anomaly_deg": 44.1113,
      "mean_motion_rev_day": 15.23749317
    },
    {
      "epoch": "2026-03-31T20:00:01.999008Z",
      "apogee_km": 492.7382525642115,
      "perigee_km": 490.142926150952,
      "latitude_deg": -34.04285939891809,
      "longitude_deg": 144.39662089715665,
      "height_km": 500.26475817744864,
      "semi_major_axis_km": 6869.577589357582,
      "eccentricity": 0.0001889,
      "inclination_deg": 43.0005,
      "raan_deg": 319.7044,
      "arg_perigee_deg": 252.7855,
      "mean_anomaly_deg": 52.4009,
      "mean_motion_rev_day": 15.24781845
    },
    {
      "epoch": "2026-04-01T20:00:01.999008Z",
      "apogee_km": 489.15958526831764,
      "perigee_km": 486.9747591007281,
      "latitude_deg": 27.779107895577067,
      "longitude_deg": -141.94385740780675,
      "height_km": 488.9338260539225,
      "semi_major_axis_km": 6866.204172184523,
      "eccentricity": 0.0001591,
      "inclination_deg": 43.0,
      "raan_deg": 314.0764,
      "arg_perigee_deg": 277.6182,
      "mean_anomaly_deg": 125.2934,
      "mean_motion_rev_day": 15.25905688
    },
    {
      "epoch": "2026-04-02T20:00:01.999008Z",
      "apogee_km": 487.1663966060414,
      "perigee_km": 484.2176956478261,
      "latitude_deg": 23.368710923341354,
      "longitude_deg": -30.18778061235151,
      "height_km": 486.1954386951932,
      "semi_major_axis_km": 6863.8290461269335,
      "eccentricity": 0.0002148,
      "inclination_deg": 42.9998,
      "raan_deg": 308.4359,
      "arg_perigee_deg": 269.0661,
      "mean_anomaly_deg": 235.5243,
      "mean_motion_rev_day": 15.26697782
    },
    {
      "epoch": "2026-04-02T22:00:01.999584Z",
      "apogee_km": 486.877224815119,
      "perigee_km": 484.4769490289218,
      "latitude_deg": -37.64821619979056,
      "longitude_deg": 22.054526751317557,
      "height_km": 495.6500964941867,
      "semi_major_axis_km": 6863.81408692202,
      "eccentricity": 0.00017485,
      "inclination_deg": 43.0007,
      "raan_deg": 307.9663,
      "arg_perigee_deg": 265.947,
      "mean_anomaly_deg": 337.2017,
      "mean_motion_rev_day": 15.26702773
    },
    {
      "epoch": "2026-04-03T20:00:01.999008Z",
      "apogee_km": 487.0161043207263,
      "perigee_km": 484.24588755756577,
      "latitude_deg": -39.118707384469865,
      "longitude_deg": 50.770107316588124,
      "height_km": 496.0076191606647,
      "semi_major_axis_km": 6863.767995939146,
      "eccentricity": 0.0002018,
      "inclination_deg": 43.0,
      "raan_deg": 302.7984,
      "arg_perigee_deg": 266.5516,
      "mean_anomaly_deg": 340.6399,
      "mean_motion_rev_day": 15.26718151
    },
    {
      "epoch": "2026-04-04T20:00:01.999008Z",
      "apogee_km": 486.98639593277403,
      "perigee_km": 484.09678724571586,
      "latitude_deg": -6.943943652843855,
      "longitude_deg": 156.53906181203902,
      "height_km": 486.244288526035,
      "semi_major_axis_km": 6863.678591589245,
      "eccentricity": 0.0002105,
      "inclination_deg": 43.0001,
      "raan_deg": 297.1579,
      "arg_perigee_deg": 269.2916,
      "mean_anomaly_deg": 80.6181,
      "mean_motion_rev_day": 15.26747981
    },
    {
      "epoch": "2026-04-04T22:00:01.999584Z",
      "apogee_km": 487.0306979632387,
      "perigee_km": 484.1086807514457,
      "latitude_deg": 43.13973269063593,
      "longitude_deg": -138.6338316183918,
      "height_km": 490.17867423699084,
      "semi_major_axis_km": 6863.706689357342,
      "eccentricity": 0.00021286,
      "inclination_deg": 43.0004,
      "raan_deg": 296.6877,
      "arg_perigee_deg": 269.6049,
      "mean_anomaly_deg": 178.8722,
      "mean_motion_rev_day": 15.26738606
    }
  ]
}